DELTA 2 R/B(1)          
1 20453U 90008B   26049.04372630  .00062180  00000+0  79809-3 0  9999
2 20453  35.6044 303.5081 0089803  75.1977 285.8687 15.53201827923071
COSMOS 2058             
1 20465U 90010A   26049.11519741  .00004098  00000+0  24255-3 0  9998
2 20465  82.4656  66.7116 0011017  49.7360 310.4832 15.11135696939286
SL-14 R/B               
1 20466U 90010B   26049.12728692  .00000406  00000+0  46266-4 0  9993
2 20466  82.5012 285.7668 0020055   8.8466 351.3098 14.83551548925586
SL-14 R/B               
1 20511U 90018B   26049.05873630  .00000422  00000+0  49950-4 0  9998
2 20511  82.5178 241.4415 0016961 152.2545 207.9578 14.82122515919671
HST                     
1 20580U 90037B   26048.64771442  .00006944  00000+0  23067-3 0  9992
2 20580  28.4680 176.6860 0001126 244.7281 115.3198 15.29149182770247
SL-16 R/B               
1 20625U 90046B   26049.11559013  .00000283  00000+0  17082-3 0  9993
2 20625  71.0017 339.0215 0015327 326.8740  33.1421 14.15012548845624
COSMOS 2084             
1 20663U 90055A   26049.12878384  .00002688  00000+0  19914-3 0  9998
2 20663  62.7900  42.2849 0020110 185.6971 174.3904 15.05517358933376
SL-6 R/B(2)             
1 20666U 90055D   26049.15141473  .00002310  00000+0  18238-3 0  9996
2 20666  62.7844 320.2894 0021848 341.9943  18.0380 15.03495190935258
SL-8 R/B                
1 20775U 90078B   26049.08388829  .00014317  00000+0  42005-3 0  9991
2 20775  82.9004 268.9348 0366060  79.7144 284.5126 14.88391082806386
SL-8 R/B                
1 21088U 91006B   26048.73308602  .00000019  00000+0  33039-5 0  9996
2 21088  82.9447 184.8815 0023775  91.5762  25.0749 13.77492328761326
OKEAN-3                 
1 21397U 91039A   26048.79578710  .00004243  00000+0  29920-3 0  9995
2 21397  82.5202 356.1097 0015761  42.7213 317.5236 15.04647919862046
COSMOS 2151             
1 21422U 91042A   26049.13859367  .00001637  00000+0  12919-3 0  9991
2 21422  82.4949 102.5382 0013883 122.3823 237.8746 15.00027487860267
