CCSDS_OMM_VERS = 2.0
CREATION_DATE  = 
ORIGINATOR     = 

OBJECT_NAME    = DELTA 2 R/B(1)
OBJECT_ID      = 1990-008B
CENTER_NAME    = EARTH
REF_FRAME      = TEME
TIME_SYSTEM    = UTC
MEAN_ELEMENT_THEORY = SGP/SGP4

EPOCH          = 2026-02-18T01:02:57.952320
MEAN_MOTION    = 15.53201827
ECCENTRICITY   = .0089803
INCLINATION    = 35.6044
RA_OF_ASC_NODE = 303.5081
ARG_OF_PERICENTER = 75.1977
MEAN_ANOMALY   = 285.8687

EPHEMERIS_TYPE = 0
CLASSIFICATION_TYPE = U
NORAD_CAT_ID   = 20453
ELEMENT_SET_NO = 999
REV_AT_EPOCH   = 92307
BSTAR          = .79809E-3
MEAN_MOTION_DOT = .6218E-3
MEAN_MOTION_DDOT = 0

CCSDS_OMM_VERS = 2.0
CREATION_DATE  = 
ORIGINATOR     = 

OBJECT_NAME    = COSMOS 2058
OBJECT_ID      = 1990-010A
CENTER_NAME    = EARTH
REF_FRAME      = TEME
TIME_SYSTEM    = UTC
MEAN_ELEMENT_THEORY = SGP/SGP4

EPOCH          = 2026-02-18T02:45:53.056224
MEAN_MOTION    = 15.11135696
ECCENTRICITY   = .0011017
INCLINATION    = 82.4656
RA_OF_ASC_NODE = 66.7116
ARG_OF_PERICENTER = 49.7360
MEAN_ANOMALY   = 310.4832

EPHEMERIS_TYPE = 0
CLASSIFICATION_TYPE = U
NORAD_CAT_ID   = 20465
ELEMENT_SET_NO = 999
REV_AT_EPOCH   = 93928
BSTAR          = .24255E-3
MEAN_MOTION_DOT = .4098E-4
MEAN_MOTION_DDOT = 0

CCSDS_OMM_VERS = 2.0
CREATION_DATE  = 
ORIGINATOR     = 

OBJECT_NAME    = SL-14 R/B
OBJECT_ID      = 1990-010B
CENTER_NAME    = EARTH
REF_FRAME      = TEME
TIME_SYSTEM    = UTC
MEAN_ELEMENT_THEORY = SGP/SGP4

EPOCH          = 2026-02-18T03:03:17.589888
MEAN_MOTION    = 14.83551548
ECCENTRICITY   = .0020055
INCLINATION    = 82.5012
RA_OF_ASC_NODE = 285.7668
ARG_OF_PERICENTER = 8.8466
MEAN_ANOMALY   = 351.3098

EPHEMERIS_TYPE = 0
CLASSIFICATION_TYPE = U
NORAD_CAT_ID   = 20466
ELEMENT_SET_NO = 999
REV_AT_EPOCH   = 92558
BSTAR          = .46266E-4
MEAN_MOTION_DOT = .406E-5
MEAN_MOTION_DDOT = 0

CCSDS_OMM_VERS = 2.0
CREATION_DATE  = 
ORIGINATOR     = 

OBJECT_NAME    = SL-14 R/B
OBJECT_ID      = 1990-018B
CENTER_NAME    = EARTH
REF_FRAME      = TEME
TIME_SYSTEM    = UTC
MEAN_ELEMENT_THEORY = SGP/SGP4

EPOCH          = 2026-02-18T01:24:34.816320
MEAN_MOTION    = 14.82122515
ECCENTRICITY   = .0016961
INCLINATION    = 82.5178
RA_OF_ASC_NODE = 241.4415
ARG_OF_PERICENTER = 152.2545
MEAN_ANOMALY   = 207.9578

EPHEMERIS_TYPE = 0
CLASSIFICATION_TYPE = U
NORAD_CAT_ID   = 20511
ELEMENT_SET_NO = 999
REV_AT_EPOCH   = 91967
BSTAR          = .4995E-4
MEAN_MOTION_DOT = .422E-5
MEAN_MOTION_DDOT = 0

CCSDS_OMM_VERS = 2.0
CREATION_DATE  = 
ORIGINATOR     = 

OBJECT_NAME    = HST
OBJECT_ID      = 1990-037B
CENTER_NAME    = EARTH
REF_FRAME      = TEME
TIME_SYSTEM    = UTC
MEAN_ELEMENT_THEORY = SGP/SGP4

EPOCH          = 2026-02-17T15:32:42.525888
MEAN_MOTION    = 15.29149182
ECCENTRICITY   = .0001126
INCLINATION    = 28.4680
RA_OF_ASC_NODE = 176.6860
ARG_OF_PERICENTER = 244.7281
MEAN_ANOMALY   = 115.3198

EPHEMERIS_TYPE = 0
CLASSIFICATION_TYPE = U
NORAD_CAT_ID   = 20580
ELEMENT_SET_NO = 999
REV_AT_EPOCH   = 77024
BSTAR          = .23067E-3
MEAN_MOTION_DOT = .6944E-4
MEAN_MOTION_DDOT = 0

CCSDS_OMM_VERS = 2.0
CREATION_DATE  = 
ORIGINATOR     = 

OBJECT_NAME    = SL-16 R/B
OBJECT_ID      = 1990-046B
CENTER_NAME    = EARTH
REF_FRAME      = TEME
TIME_SYSTEM    = UTC
MEAN_ELEMENT_THEORY = SGP/SGP4

EPOCH          = 2026-02-18T02:46:26.987232
MEAN_MOTION    = 14.15012548
ECCENTRICITY   = .0015327
INCLINATION    = 71.0017
RA_OF_ASC_NODE = 339.0215
ARG_OF_PERICENTER = 326.8740
MEAN_ANOMALY   = 33.1421

EPHEMERIS_TYPE = 0
CLASSIFICATION_TYPE = U
NORAD_CAT_ID   = 20625
ELEMENT_SET_NO = 999
REV_AT_EPOCH   = 84562
BSTAR          = .17082E-3
MEAN_MOTION_DOT = .283E-5
MEAN_MOTION_DDOT = 0

CCSDS_OMM_VERS = 2.0
CREATION_DATE  = 
ORIGINATOR     = 

OBJECT_NAME    = COSMOS 2084
OBJECT_ID      = 1990-055A
CENTER_NAME    = EARTH
REF_FRAME      = TEME
TIME_SYSTEM    = UTC
MEAN_ELEMENT_THEORY = SGP/SGP4

EPOCH          = 2026-02-18T03:05:26.923776
MEAN_MOTION    = 15.05517358
ECCENTRICITY   = .002011
INCLINATION    = 62.7900
RA_OF_ASC_NODE = 42.2849
ARG_OF_PERICENTER = 185.6971
MEAN_ANOMALY   = 174.3904

EPHEMERIS_TYPE = 0
CLASSIFICATION_TYPE = U
NORAD_CAT_ID   = 20663
ELEMENT_SET_NO = 999
REV_AT_EPOCH   = 93337
BSTAR          = .19914E-3
MEAN_MOTION_DOT = .2688E-4
MEAN_MOTION_DDOT = 0

CCSDS_OMM_VERS = 2.0
CREATION_DATE  = 
ORIGINATOR     = 

OBJECT_NAME    = SL-6 R/B(2)
OBJECT_ID      = 1990-055D
CENTER_NAME    = EARTH
REF_FRAME      = TEME
TIME_SYSTEM    = UTC
MEAN_ELEMENT_THEORY = SGP/SGP4

EPOCH          = 2026-02-18T03:38:02.232672
MEAN_MOTION    = 15.03495190
ECCENTRICITY   = .0021848
INCLINATION    = 62.7844
RA_OF_ASC_NODE = 320.2894
ARG_OF_PERICENTER = 341.9943
MEAN_ANOMALY   = 18.0380

EPHEMERIS_TYPE = 0
CLASSIFICATION_TYPE = U
NORAD_CAT_ID   = 20666
ELEMENT_SET_NO = 999
REV_AT_EPOCH   = 93525
BSTAR          = .18238E-3
MEAN_MOTION_DOT = .231E-4
MEAN_MOTION_DDOT = 0

CCSDS_OMM_VERS = 2.0
CREATION_DATE  = 
ORIGINATOR     = 

OBJECT_NAME    = SL-8 R/B
OBJECT_ID      = 1990-078B
CENTER_NAME    = EARTH
REF_FRAME      = TEME
TIME_SYSTEM    = UTC
MEAN_ELEMENT_THEORY = SGP/SGP4

EPOCH          = 2026-02-18T02:00:47.948256
MEAN_MOTION    = 14.88391082
ECCENTRICITY   = .036606
INCLINATION    = 82.9004
RA_OF_ASC_NODE = 268.9348
ARG_OF_PERICENTER = 79.7144
MEAN_ANOMALY   = 284.5126

EPHEMERIS_TYPE = 0
CLASSIFICATION_TYPE = U
NORAD_CAT_ID   = 20775
ELEMENT_SET_NO = 999
REV_AT_EPOCH   = 80638
BSTAR          = .42005E-3
MEAN_MOTION_DOT = .14317E-3
MEAN_MOTION_DDOT = 0

CCSDS_OMM_VERS = 2.0
CREATION_DATE  = 
ORIGINATOR     = 

OBJECT_NAME    = SL-8 R/B
OBJECT_ID      = 1991-006B
CENTER_NAME    = EARTH
REF_FRAME      = TEME
TIME_SYSTEM    = UTC
MEAN_ELEMENT_THEORY = SGP/SGP4

EPOCH          = 2026-02-17T17:35:38.632128
MEAN_MOTION    = 13.77492328
ECCENTRICITY   = .0023775
INCLINATION    = 82.9447
RA_OF_ASC_NODE = 184.8815
ARG_OF_PERICENTER = 91.5762
MEAN_ANOMALY   = 25.0749

EPHEMERIS_TYPE = 0
CLASSIFICATION_TYPE = U
NORAD_CAT_ID   = 21088
ELEMENT_SET_NO = 999
REV_AT_EPOCH   = 76132
BSTAR          = .33039E-5
MEAN_MOTION_DOT = .19E-6
MEAN_MOTION_DDOT = 0

CCSDS_OMM_VERS = 2.0
CREATION_DATE  = 
ORIGINATOR     = 

OBJECT_NAME    = OKEAN-3
OBJECT_ID      = 1991-039A
CENTER_NAME    = EARTH
REF_FRAME      = TEME
TIME_SYSTEM    = UTC
MEAN_ELEMENT_THEORY = SGP/SGP4

EPOCH          = 2026-02-17T19:05:56.005440
MEAN_MOTION    = 15.04647919
ECCENTRICITY   = .00157614
INCLINATION    = 82.5202
RA_OF_ASC_NODE = 356.1097
ARG_OF_PERICENTER = 42.7213
MEAN_ANOMALY   = 317.5236

EPHEMERIS_TYPE = 0
CLASSIFICATION_TYPE = U
NORAD_CAT_ID   = 21397
ELEMENT_SET_NO = 999
REV_AT_EPOCH   = 86204
BSTAR          = .29919927E-3
MEAN_MOTION_DOT = .4243E-4
MEAN_MOTION_DDOT = 0

CCSDS_OMM_VERS = 2.0
CREATION_DATE  = 
ORIGINATOR     = 

OBJECT_NAME    = COSMOS 2151
OBJECT_ID      = 1991-042A
CENTER_NAME    = EARTH
REF_FRAME      = TEME
TIME_SYSTEM    = UTC
MEAN_ELEMENT_THEORY = SGP/SGP4

EPOCH          = 2026-02-18T03:19:34.493088
MEAN_MOTION    = 15.00027487
ECCENTRICITY   = .0013883
INCLINATION    = 82.4949
RA_OF_ASC_NODE = 102.5382
ARG_OF_PERICENTER = 122.3823
MEAN_ANOMALY   = 237.8746

EPHEMERIS_TYPE = 0
CLASSIFICATION_TYPE = U
NORAD_CAT_ID   = 21422
ELEMENT_SET_NO = 999
REV_AT_EPOCH   = 86026
BSTAR          = .12919E-3
MEAN_MOTION_DOT = .1637E-4
MEAN_MOTION_DDOT = 0

